GLOBALSTAR M094         
1 39074U 13005C   25352.27970473 -.00000103  00000+0  17430-5 0  9992
2 39074  51.9980 341.6098 0000302  18.1409 341.9469 12.62265381595625
GLOBALSTAR M096         
1 39075U 13005D   25352.53030006 -.00000092  00000+0  64156-4 0  9994
2 39075  52.0090  29.5036 0000124 138.9699 221.1177 12.62269445594571
GLOBALSTAR M078         
1 39076U 13005E   25352.58348222 -.00000122  00000+0 -10432-3 0  9994
2 39076  51.9867 113.6028 0000857 175.5904 184.4971 12.62272493593206
GLOBALSTAR M095         
1 39077U 13005F   25352.68892667 -.00000126  00000+0 -12511-3 0  9997
2 39077  52.0073 110.6290 0000518 135.1198 224.9711 12.62267247593075
GLOBALSTAR M087         
1 52888U 22064A   25352.86034889 -.00000068  00000+0  19866-3 0  9995
2 52888  51.9991 251.4501 0000734  51.5443 308.5489 12.62261591168367
